{
  "type": "FeatureCollection",
  "features": [
    {
      "type": "Feature",
      "properties": {
        "norad_id": 43057,
        "name": "GSAT0217 (GALILEO 21)",
        "group": "gnss",
        "lat": 55.11618993904498,
        "lon": -45.43246381218833,
        "alt_km": 23218.15069284905,
        "timestamp": "2025-12-09T14:52:26.405144+00:00",
        "meta_object_name": "GSAT0217 (GALILEO 21)",
        "meta_object_id": "2017-079C",
        "meta_epoch": "2025-12-08T07:14:55.853376",
        "meta_mean_motion": 1.70473894,
        "meta_eccentricity": 0.0002795,
        "meta_inclination": 55.1299,
        "meta_ra_of_asc_node": 226.758,
        "meta_arg_of_pericenter": 342.2851,
        "meta_mean_anomaly": 17.7961,
        "meta_ephemeris_type": 0,
        "meta_classification_type": "U",
        "meta_norad_cat_id": 43057,
        "meta_element_set_no": 999,
        "meta_rev_at_epoch": 4973,
        "meta_bstar": 0,
        "meta_mean_motion_dot": 1.7e-07,
        "meta_mean_motion_ddot": 0,
        "tle_line1": "1 43057U 17079C   25342.30203534  .00000017  00000+0  00000+0 0  9995",
        "tle_line2": "2 43057  55.1299 226.7580 0002795 342.2851  17.7961  1.70473894 49737"
      },
      "geometry": {
        "type": "Point",
        "coordinates": [
          -45.43246381218833,
          55.11618993904498
        ]
      }
    },
    {
      "type": "Feature",
      "properties": {
        "norad_id": 43058,
        "name": "GSAT0218 (GALILEO 22)",
        "group": "gnss",
        "lat": -36.416878295853095,
        "lon": -164.19898235269238,
        "alt_km": 23218.321673624727,
        "timestamp": "2025-12-09T14:52:26.405155+00:00",
        "meta_object_name": "GSAT0218 (GALILEO 22)",
        "meta_object_id": "2017-079D",
        "meta_epoch": "2025-12-06T18:17:46.482720",
        "meta_mean_motion": 1.70473862,
        "meta_eccentricity": 0.00028449,
        "meta_inclination": 55.1307,
        "meta_ra_of_asc_node": 226.7982,
        "meta_arg_of_pericenter": 305.5375,
        "meta_mean_anomaly": 54.5328,
        "meta_ephemeris_type": 0,
        "meta_classification_type": "U",
        "meta_norad_cat_id": 43058,
        "meta_element_set_no": 999,
        "meta_rev_at_epoch": 4973,
        "meta_bstar": 0,
        "meta_mean_motion_dot": 2.9e-07,
        "meta_mean_motion_ddot": 0,
        "tle_line1": "1 43058U 17079D   25340.76234355  .00000029  00000+0  00000+0 0  9992",
        "tle_line2": "2 43058  55.1307 226.7982 0002844 305.5375  54.5328  1.70473862 49733"
      },
      "geometry": {
        "type": "Point",
        "coordinates": [
          -164.19898235269238,
          -36.416878295853095
        ]
      }
    },
    {
      "type": "Feature",
      "properties": {
        "norad_id": 43107,
        "name": "BEIDOU-3 M7 (C27)",
        "group": "gnss",
        "lat": -41.854440700665556,
        "lon": 168.6194421080109,
        "alt_km": 21539.667996720153,
        "timestamp": "2025-12-09T14:52:26.405166+00:00",
        "meta_object_name": "BEIDOU-3 M7 (C27)",
        "meta_object_id": "2018-003A",
        "meta_epoch": "2025-12-08T17:34:34.070592",
        "meta_mean_motion": 1.86232165,
        "meta_eccentricity": 0.00025535,
        "meta_inclination": 54.5005,
        "meta_ra_of_asc_node": 308.9546,
        "meta_arg_of_pericenter": 71.3868,
        "meta_mean_anomaly": 288.6293,
        "meta_ephemeris_type": 0,
        "meta_classification_type": "U",
        "meta_norad_cat_id": 43107,
        "meta_element_set_no": 999,
        "meta_rev_at_epoch": 5380,
        "meta_bstar": 0,
        "meta_mean_motion_dot": -7.5e-07,
        "meta_mean_motion_ddot": 0,
        "tle_line1": "1 43107U 18003A   25342.73233878 -.00000075  00000+0  00000+0 0  9995",
        "tle_line2": "2 43107  54.5005 308.9546 0002553  71.3868 288.6293  1.86232165 53807"
      },
      "geometry": {
        "type": "Point",
        "coordinates": [
          168.6194421080109,
          -41.854440700665556
        ]
      }
    },
    {
      "type": "Feature",
      "properties": {
        "norad_id": 43108,
        "name": "BEIDOU-3 M8 (C28)",
        "group": "gnss",
        "lat": -54.449533795571924,
        "lon": -137.8554495551789,
        "alt_km": 21520.729560637395,
        "timestamp": "2025-12-09T14:52:26.405178+00:00",
        "meta_object_name": "BEIDOU-3 M8 (C28)",
        "meta_object_id": "2018-003B",
        "meta_epoch": "2025-12-08T03:21:57.743424",
        "meta_mean_motion": 1.86230794,
        "meta_eccentricity": 0.00047249,
        "meta_inclination": 54.4937,
        "meta_ra_of_asc_node": 308.9576,
        "meta_arg_of_pericenter": 275.4662,
        "meta_mean_anomaly": 84.4669,
        "meta_ephemeris_type": 0,
        "meta_classification_type": "U",
        "meta_norad_cat_id": 43108,
        "meta_element_set_no": 999,
        "meta_rev_at_epoch": 5380,
        "meta_bstar": 0,
        "meta_mean_motion_dot": -7.3e-07,
        "meta_mean_motion_ddot": 0,
        "tle_line1": "1 43108U 18003B   25342.14025166 -.00000073  00000+0  00000+0 0  9998",
        "tle_line2": "2 43108  54.4937 308.9576 0004724 275.4662  84.4669  1.86230794 53800"
      },
      "geometry": {
        "type": "Point",
        "coordinates": [
          -137.8554495551789,
          -54.449533795571924
        ]
      }
    },
    {
      "type": "Feature",
      "properties": {
        "norad_id": 43207,
        "name": "BEIDOU-3 M4 (C22)",
        "group": "gnss",
        "lat": -20.145987578461547,
        "lon": 55.3654056990408,
        "alt_km": 21521.483039176826,
        "timestamp": "2025-12-09T14:52:26.405193+00:00",
        "meta_object_name": "BEIDOU-3 M4 (C22)",
        "meta_object_id": "2018-018A",
        "meta_epoch": "2025-12-06T10:25:28.940736",
        "meta_mean_motion": 1.86230708,
        "meta_eccentricity": 0.00041784,
        "meta_inclination": 56.4806,
        "meta_ra_of_asc_node": 69.5126,
        "meta_arg_of_pericenter": 11.9666,
        "meta_mean_anomaly": 348.0575,
        "meta_ephemeris_type": 0,
        "meta_classification_type": "U",
        "meta_norad_cat_id": 43207,
        "meta_element_set_no": 999,
        "meta_rev_at_epoch": 5315,
        "meta_bstar": 0,
        "meta_mean_motion_dot": -4.5e-07,
        "meta_mean_motion_ddot": 0,
        "tle_line1": "1 43207U 18018A   25340.43436274 -.00000045  00000+0  00000+0 0  9999",
        "tle_line2": "2 43207  56.4806  69.5126 0004178  11.9666 348.0575  1.86230708 53156"
      },
      "geometry": {
        "type": "Point",
        "coordinates": [
          55.3654056990408,
          -20.145987578461547
        ]
      }
    },
    {
      "type": "Feature",
      "properties": {
        "norad_id": 43208,
        "name": "BEIDOU-3 M3 (C21)",
        "group": "gnss",
        "lat": -51.14533447021457,
        "lon": 14.183582180805118,
        "alt_km": 21517.55509413425,
        "timestamp": "2025-12-09T14:52:26.405204+00:00",
        "meta_object_name": "BEIDOU-3 M3 (C21)",
        "meta_object_id": "2018-018B",
        "meta_epoch": "2025-12-09T04:27:22.130784",
        "meta_mean_motion": 1.86231192,
        "meta_eccentricity": 0.00064679,
        "meta_inclination": 56.4827,
        "meta_ra_of_asc_node": 69.4258,
        "meta_arg_of_pericenter": 317.3873,
        "meta_mean_anomaly": 42.5846,
        "meta_ephemeris_type": 0,
        "meta_classification_type": "U",
        "meta_norad_cat_id": 43208,
        "meta_element_set_no": 999,
        "meta_rev_at_epoch": 5320,
        "meta_bstar": 0,
        "meta_mean_motion_dot": -4.7e-07,
        "meta_mean_motion_ddot": 0,
        "tle_line1": "1 43208U 18018B   25343.18567281 -.00000047  00000+0  00000+0 0  9990",
        "tle_line2": "2 43208  56.4827  69.4258 0006467 317.3873  42.5846  1.86231192 53202"
      },
      "geometry": {
        "type": "Point",
        "coordinates": [
          14.183582180805118,
          -51.14533447021457
        ]
      }
    },
    {
      "type": "Feature",
      "properties": {
        "norad_id": 43245,
        "name": "BEIDOU-3 M9 (C29)",
        "group": "gnss",
        "lat": 26.937117053883192,
        "lon": 105.19951167416168,
        "alt_km": 21527.954188405198,
        "timestamp": "2025-12-09T14:52:26.405218+00:00",
        "meta_object_name": "BEIDOU-3 M9 (C29)",
        "meta_object_id": "2018-029A",
        "meta_epoch": "2025-12-08T20:45:22.665024",
        "meta_mean_motion": 1.86227881,
        "meta_eccentricity": 0.00016693,
        "meta_inclination": 54.3693,
        "meta_ra_of_asc_node": 306.6022,
        "meta_arg_of_pericenter": 274.1611,
        "meta_mean_anomaly": 85.8087,
        "meta_ephemeris_type": 0,
        "meta_classification_type": "U",
        "meta_norad_cat_id": 43245,
        "meta_element_set_no": 999,
        "meta_rev_at_epoch": 5235,
        "meta_bstar": 0,
        "meta_mean_motion_dot": -7.4e-07,
        "meta_mean_motion_ddot": 0,
        "tle_line1": "1 43245U 18029A   25342.86484566 -.00000074  00000+0  00000+0 0  9991",
        "tle_line2": "2 43245  54.3693 306.6022 0001669 274.1611  85.8087  1.86227881 52357"
      },
      "geometry": {
        "type": "Point",
        "coordinates": [
          105.19951167416168,
          26.937117053883192
        ]
      }
    }
  ]
}